[
    {
        "Altitude(m)": 557166.8025482844,
        "Argument of Periapsis(deg)": 0.026491964442854003,
        "Eccentricity": 0.0,
        "Inclination(deg)": 53.0,
        "Latitude(deg)": -14.278501179705456,
        "Longitude(deg)": 55.820650025751554,
        "Mean Anomaly(deg)": -17.815328529689687,
        "RAAN(deg)": 169.96057347411207,
        "Satellite Name": "Starlink Shell 1 766",
        "Satellite Number": 766,
        "Semi-Major Axis(m)": 6931778.249405717,
        "Time(s)": 760
    },
    {
        "Altitude(m)": 557031.0082299105,
        "Argument of Periapsis(deg)": 0.02684054292236524,
        "Eccentricity": 0.0,
        "Inclination(deg)": 53.0,
        "Latitude(deg)": -13.784107981344137,
        "Longitude(deg)": 56.1790994572906,
        "Mean Anomaly(deg)": -17.18849732613284,
        "RAAN(deg)": 169.9600547040346,
        "Satellite Name": "Starlink Shell 1 766",
        "Satellite Number": 766,
        "Semi-Major Axis(m)": 6931778.249405717,
        "Time(s)": 770
    },
    {
        "Altitude(m)": 556897.2987880234,
        "Argument of Periapsis(deg)": 0.027189121401876473,
        "Eccentricity": 0.0,
        "Inclination(deg)": 53.0,
        "Latitude(deg)": -13.289034649614921,
        "Longitude(deg)": 56.53588192465731,
        "Mean Anomaly(deg)": -16.5616661225762,
        "RAAN(deg)": 169.95953593395714,
        "Satellite Name": "Starlink Shell 1 766",
        "Satellite Number": 766,
        "Semi-Major Axis(m)": 6931778.249405717,
        "Time(s)": 780
    },
    {
        "Altitude(m)": 556765.7162106325,
        "Argument of Periapsis(deg)": 0.02753769988138771,
        "Eccentricity": 0.0,
        "Inclination(deg)": 53.0,
        "Latitude(deg)": -12.793308481938066,
        "Longitude(deg)": 56.891064636701174,
        "Mean Anomaly(deg)": -15.934834919019526,
        "RAAN(deg)": 169.95901716387965,
        "Satellite Name": "Starlink Shell 1 766",
        "Satellite Number": 766,
        "Semi-Major Axis(m)": 6931778.249405717,
        "Time(s)": 790
    },
    {
        "Altitude(m)": 556636.3013924683,
        "Argument of Periapsis(deg)": 0.02788627836089895,
        "Eccentricity": 0.0,
        "Inclination(deg)": 53.0,
        "Latitude(deg)": -12.296956435210484,
        "Longitude(deg)": 57.244713618271604,
        "Mean Anomaly(deg)": -15.308003715462778,
        "RAAN(deg)": 169.9584983938022,
        "Satellite Name": "Starlink Shell 1 766",
        "Satellite Number": 766,
        "Semi-Major Axis(m)": 6931778.249405717,
        "Time(s)": 800
    },
    {
        "Altitude(m)": 556509.0941173679,
        "Argument of Periapsis(deg)": 0.02823485684041019,
        "Eccentricity": 0.0,
        "Inclination(deg)": 53.0,
        "Latitude(deg)": -11.800005141316243,
        "Longitude(deg)": 57.596894241187215,
        "Mean Anomaly(deg)": -14.681172511906007,
        "RAAN(deg)": 169.95797962372473,
        "Satellite Name": "Starlink Shell 1 766",
        "Satellite Number": 766,
        "Semi-Major Axis(m)": 6931778.249405717,
        "Time(s)": 810
    },
    {
        "Altitude(m)": 556384.1330411617,
        "Argument of Periapsis(deg)": 0.028583435319921423,
        "Eccentricity": 0.0,
        "Inclination(deg)": 53.0,
        "Latitude(deg)": -11.3024809223404,
        "Longitude(deg)": 57.947671755168315,
        "Mean Anomaly(deg)": -14.054341308349338,
        "RAAN(deg)": 169.95746085364723,
        "Satellite Name": "Starlink Shell 1 766",
        "Satellite Number": 766,
        "Semi-Major Axis(m)": 6931778.249405717,
        "Time(s)": 820
    },
    {
        "Altitude(m)": 556261.455675194,
        "Argument of Periapsis(deg)": 0.028932013799432665,
        "Eccentricity": 0.0,
        "Inclination(deg)": 53.0,
        "Latitude(deg)": -10.804409805500088,
        "Longitude(deg)": 58.29711030585,
        "Mean Anomaly(deg)": -13.427510104792592,
        "RAAN(deg)": 169.95694208356977,
        "Satellite Name": "Starlink Shell 1 766",
        "Satellite Number": 766,
        "Semi-Major Axis(m)": 6931778.249405717,
        "Time(s)": 830
    },
    {
        "Altitude(m)": 556141.0983703212,
        "Argument of Periapsis(deg)": 0.029280592278943897,
        "Eccentricity": 0.0,
        "Inclination(deg)": 53.0,
        "Latitude(deg)": -10.30581753780257,
        "Longitude(deg)": 58.64527346560949,
        "Mean Anomaly(deg)": -12.800678901235946,
        "RAAN(deg)": 169.9564233134923,
        "Satellite Name": "Starlink Shell 1 766",
        "Satellite Number": 766,
        "Semi-Major Axis(m)": 6931778.249405717,
        "Time(s)": 840
    },
    {
        "Altitude(m)": 556023.0963015609,
        "Argument of Periapsis(deg)": 0.029629170758455132,
        "Eccentricity": 0.0,
        "Inclination(deg)": 53.0,
        "Latitude(deg)": -9.806729600442473,
        "Longitude(deg)": 58.992224764329,
        "Mean Anomaly(deg)": -12.173847697679173,
        "RAAN(deg)": 169.95590454341482,
        "Satellite Name": "Starlink Shell 1 766",
        "Satellite Number": 766,
        "Semi-Major Axis(m)": 6931778.249405717,
        "Time(s)": 850
    },
    {
        "Altitude(m)": 555907.4834532619,
        "Argument of Periapsis(deg)": 0.02997774923796637,
        "Eccentricity": 0.0,
        "Inclination(deg)": 53.0,
        "Latitude(deg)": -9.307171222954848,
        "Longitude(deg)": 59.33802653911575,
        "Mean Anomaly(deg)": -11.547016494122506,
        "RAAN(deg)": 169.95538577333735,
        "Satellite Name": "Starlink Shell 1 766",
        "Satellite Number": 766,
        "Semi-Major Axis(m)": 6931778.249405717,
        "Time(s)": 860
    },
    {
        "Altitude(m)": 555794.2926049234,
        "Argument of Periapsis(deg)": 0.030326327717477602,
        "Eccentricity": 0.0,
        "Inclination(deg)": 53.0,
        "Latitude(deg)": -8.807167397128524,
        "Longitude(deg)": 59.68274130540104,
        "Mean Anomaly(deg)": -10.920185290565756,
        "RAAN(deg)": 169.9548670032599,
        "Satellite Name": "Starlink Shell 1 766",
        "Satellite Number": 766,
        "Semi-Major Axis(m)": 6931778.249405717,
        "Time(s)": 870
    },
    {
        "Altitude(m)": 555683.5553175597,
        "Argument of Periapsis(deg)": 0.030674906196988847,
        "Eccentricity": 0.0,
        "Inclination(deg)": 53.0,
        "Latitude(deg)": -8.306742890700672,
        "Longitude(deg)": 60.026430606502494,
        "Mean Anomaly(deg)": -10.293354087008986,
        "RAAN(deg)": 169.9543482331824,
        "Satellite Name": "Starlink Shell 1 766",
        "Satellite Number": 766,
        "Semi-Major Axis(m)": 6931778.249405717,
        "Time(s)": 880
    },
    {
        "Altitude(m)": 555575.3019207055,
        "Argument of Periapsis(deg)": 0.031023484676500086,
        "Eccentricity": 0.0,
        "Inclination(deg)": 53.0,
        "Latitude(deg)": -7.805922260837536,
        "Longitude(deg)": 60.36915554407467,
        "Mean Anomaly(deg)": -9.666522883452341,
        "RAAN(deg)": 169.95382946310494,
        "Satellite Name": "Starlink Shell 1 766",
        "Satellite Number": 766,
        "Semi-Major Axis(m)": 6931778.249405717,
        "Time(s)": 890
    },
    {
        "Altitude(m)": 555469.5615000171,
        "Argument of Periapsis(deg)": 0.03137206315601132,
        "Eccentricity": 0.0,
        "Inclination(deg)": 53.0,
        "Latitude(deg)": -7.304729867415932,
        "Longitude(deg)": 60.7109773084756,
        "Mean Anomaly(deg)": -9.039691679895594,
        "RAAN(deg)": 169.95331069302748,
        "Satellite Name": "Starlink Shell 1 766",
        "Satellite Number": 766,
        "Semi-Major Axis(m)": 6931778.249405717,
        "Time(s)": 900
    },
    {
        "Altitude(m)": 555366.3618855058,
        "Argument of Periapsis(deg)": 0.03172064163552255,
        "Eccentricity": 0.0,
        "Inclination(deg)": 53.0,
        "Latitude(deg)": -6.803189886120361,
        "Longitude(deg)": 61.051956196175304,
        "Mean Anomaly(deg)": -8.4128604763389,
        "RAAN(deg)": 169.95279192294998,
        "Satellite Name": "Starlink Shell 1 766",
        "Satellite Number": 766,
        "Semi-Major Axis(m)": 6931778.249405717,
        "Time(s)": 910
    },
    {
        "Altitude(m)": 555265.7296403672,
        "Argument of Periapsis(deg)": 0.0320692201150338,
        "Eccentricity": 0.0,
        "Inclination(deg)": 53.0,
        "Latitude(deg)": -6.301326321361882,
        "Longitude(deg)": 61.39215213995617,
        "Mean Anomaly(deg)": -7.786029272782152,
        "RAAN(deg)": 169.95227315287252,
        "Satellite Name": "Starlink Shell 1 766",
        "Satellite Number": 766,
        "Semi-Major Axis(m)": 6931778.249405717,
        "Time(s)": 920
    },
    {
        "Altitude(m)": 555167.6900504936,
        "Argument of Periapsis(deg)": 0.032417798594545036,
        "Eccentricity": 0.0,
        "Inclination(deg)": 53.0,
        "Latitude(deg)": -5.799163019034752,
        "Longitude(deg)": 61.73162523903052,
        "Mean Anomaly(deg)": -7.159198069225507,
        "RAAN(deg)": 169.95175438279506,
        "Satellite Name": "Starlink Shell 1 766",
        "Satellite Number": 766,
        "Semi-Major Axis(m)": 6931778.249405717,
        "Time(s)": 930
    },
    {
        "Altitude(m)": 555072.2671145771,
        "Argument of Periapsis(deg)": 0.03276637707405627,
        "Eccentricity": 0.0,
        "Inclination(deg)": 53.0,
        "Latitude(deg)": -5.296723679121907,
        "Longitude(deg)": 62.070434776207804,
        "Mean Anomaly(deg)": -6.532366865668837,
        "RAAN(deg)": 169.95123561271757,
        "Satellite Name": "Starlink Shell 1 766",
        "Satellite Number": 766,
        "Semi-Major Axis(m)": 6931778.249405717,
        "Time(s)": 940
    }
]